NORAD_CAT_ID,OBJECT_NAME,OBJECT_TYPE,EPOCH,MEAN_MOTION,ECCENTRICITY,INCLINATION,RA_OF_ASC_NODE,ARG_OF_PERICENTER,MEAN_ANOMALY,BSTAR,MEAN_MOTION_DOT,MEAN_MOTION_DDOT,TLE_LINE0,TLE_LINE1,TLE_LINE2,SEMIMAJOR_AXIS,PERIOD,APOGEE,PERIGEE,DECAYED
54769.0,STARLINK-5404,PAYLOAD,2023-08-25 07:06:30,15.08841235,0.0001467,53.2149,247.3856,94.232,265.8839,8.4756e-05,1.061e-05,0.0,0 STARLINK-5404,1 54769U 22175M   23237.29618778  .00001061  00000-0  84756-4 0  9995,2 54769  53.2149 247.3856 0001467  94.2320 265.8839 15.08841235 37750,6917.877,95.437,540.756,538.727,0.0
54769.0,STARLINK-5404,PAYLOAD,2023-08-25 11:52:39,15.08842624,0.0001466,53.2145,246.4932,98.0196,262.0963,0.00010367,1.362e-05,0.0,0 STARLINK-5404,1 54769U 22175M   23237.49490685  .00001362  00000-0  10367-3 0  9992,2 54769  53.2145 246.4932 0001466  98.0196 262.0963 15.08842624 39946,6917.872,95.437,540.752,538.723,0.0
54769.0,STARLINK-5404,PAYLOAD,2023-08-26 10:08:03,15.08845331,0.0001463,53.2146,242.3299,95.5023,264.6136,0.00015122,2.12e-05,0.0,0 STARLINK-5404,1 54769U 22175M   23238.42226557  .00002120  00000-0  15122-3 0  9998,2 54769  53.2146 242.3299 0001463  95.5023 264.6136 15.08845331 37920,6917.864,95.437,540.741,538.717,0.0
54769.0,STARLINK-5404,PAYLOAD,2023-08-26 11:43:26,15.08847509,0.0001476,53.2148,242.0328,94.2371,265.8789,0.00017917,2.565e-05,0.0,0 STARLINK-5404,1 54769U 22175M   23238.48850438  .00002565  00000-0  17917-3 0  9992,2 54769  53.2148 242.0328 0001476  94.2371 265.8789 15.08847509 40096,6917.857,95.437,540.744,538.701,0.0
54769.0,STARLINK-5404,PAYLOAD,2023-08-27 05:12:41,15.08840549,0.000154,53.2165,238.7611,95.9556,264.1611,6.3753e-05,7.27e-06,0.0,0 STARLINK-5404,1 54769U 22175M   23239.21714826  .00000727  00000-0  63753-4 0  9992,2 54769  53.2165 238.7611 0001540  95.9556 264.1611 15.08840549 38042,6917.879,95.438,540.809,538.678,0.0
54769.0,STARLINK-5404,PAYLOAD,2023-08-28 09:49:38,15.08838686,0.0001379,53.2161,233.4102,93.9711,266.1439,-1.5738e-05,-5.38e-06,0.0,0 STARLINK-5404,1 54769U 22175M   23240.40947157 -.00000538  00000-0 -15738-4 0  9992,2 54769  53.2161 233.4102 0001379  93.9711 266.1439 15.08838686 38225,6917.884,95.438,540.703,538.795,0.0
54769.0,STARLINK-5404,PAYLOAD,2023-08-28 16:11:10,15.08838585,0.0001331,53.2157,232.2204,93.2663,266.8482,-1.8488e-05,-5.82e-06,0.0,0 STARLINK-5404,1 54769U 22175M   23240.67443129 -.00000582  00000-0 -18488-4 0  9995,2 54769  53.2157 232.2204 0001331  93.2663 266.8482 15.08838585 40425,6917.885,95.438,540.67,538.829,0.0
54769.0,STARLINK-5404,PAYLOAD,2023-08-29 09:40:24,15.08843972,0.0001282,53.2157,228.9491,92.4767,267.6372,0.00011339,1.517e-05,0.0,0 STARLINK-5404,1 54769U 22175M   23241.40306495  .00001517  00000-0  11339-3 0  9995,2 54769  53.2157 228.9491 0001282  92.4767 267.6372 15.08843972 38370,6917.868,95.437,540.62,538.846,0.0
54769.0,STARLINK-5404,PAYLOAD,2023-08-29 14:26:35,15.08827413,0.0001358,53.2157,228.057,84.8716,275.2432,-2.9177e-05,-7.52e-06,0.0,0 STARLINK-5404,1 54769U 22175M   23241.60179975 -.00000752  00000-0 -29177-4 0  9990,2 54769  53.2157 228.0570 0001358  84.8716 275.2432 15.08827413 38400,6917.919,95.438,540.723,538.844,0.0
54769.0,STARLINK-5404,PAYLOAD,2023-08-30 07:55:49,15.0883382,0.0001284,53.2158,224.7859,90.3217,269.7922,6.5562e-05,7.56e-06,0.0,0 STARLINK-5404,1 54769U 22175M   23242.33043816  .00000756  00000-0  65562-4 0  9995,2 54769  53.2158 224.7859 0001284  90.3217 269.7922 15.08833820 38513,6917.899,95.438,540.653,538.876,0.0
54769.0,STARLINK-5404,PAYLOAD,2023-08-30 15:52:45,15.08836559,0.0001277,53.2158,223.299,92.048,268.0659,7.489e-05,9.04e-06,0.0,0 STARLINK-5404,1 54769U 22175M   23242.66163809  .00000904  00000-0  74890-4 0  9995,2 54769  53.2158 223.2990 0001277  92.0480 268.0659 15.08836559 40723,6917.891,95.438,540.639,538.872,0.0
54769.0,STARLINK-5404,PAYLOAD,2023-08-31 10:57:22,15.0884437,0.0001286,53.2148,219.7305,92.2682,267.8457,0.00011969,1.618e-05,0.0,0 STARLINK-5404,1 54769U 22175M   23243.45651225  .00001618  00000-0  11969-3 0  9997,2 54769  53.2148 219.7305 0001286  92.2682 267.8457 15.08844370 38683,6917.867,95.437,540.622,538.842,0.0
54769.0,STARLINK-5404,PAYLOAD,2023-08-31 22:05:04,15.08842369,0.000183,53.2138,217.6487,89.1497,270.9705,0.00010312,1.354e-05,0.0,0 STARLINK-5404,1 54769U 22175M   23243.92019609  .00001354  00000-0  10312-3 0  9991,2 54769  53.2138 217.6487 0001830  89.1497 270.9705 15.08842369 40910,6917.873,95.437,541.004,538.472,0.0
54769.0,STARLINK-5404,PAYLOAD,2023-09-01 04:26:37,15.08839374,0.0001853,53.2142,216.4594,86.3911,273.7293,0.00017554,2.507e-05,0.0,0 STARLINK-5404,1 54769U 22175M   23244.18515919  .00002507  00000-0  17554-3 0  9991,2 54769  53.2142 216.4594 0001853  86.3911 273.7293 15.08839374 38794,6917.882,95.438,541.029,538.465,0.0
54769.0,STARLINK-5404,PAYLOAD,2023-09-01 15:34:19,15.08837257,0.0001737,53.2141,214.3774,92.2677,267.8514,0.00024266,3.576e-05,0.0,0 STARLINK-5404,1 54769U 22175M   23244.64884164  .00003576  00000-0  24266-3 0  9998,2 54769  53.2141 214.3774 0001737  92.2677 267.8514 15.08837257 41024,6917.889,95.438,540.955,538.552,0.0
54769.0,STARLINK-5404,PAYLOAD,2023-09-02 04:17:23,15.08852416,7.13e-05,53.215,211.9988,91.189,268.9183,0.00020473,2.973e-05,0.0,0 STARLINK-5404,1 54769U 22175M   23245.17874916  .00002973  00000-0  20473-3 0  9997,2 54769  53.2150 211.9988 0000713  91.1890 268.9183 15.08852416 38947,6917.842,95.437,540.201,539.214,0.0
54769.0,STARLINK-5404,PAYLOAD,2023-09-02 15:25:05,15.08851989,0.0001286,53.2155,209.9163,95.9344,264.1794,0.00012673,1.73e-05,0.0,0 STARLINK-5404,1 54769U 22175M   23245.64243030  .00001730  00000-0  12673-3 0  9999,2 54769  53.2155 209.9163 0001286  95.9344 264.1794 15.08851989 41175,6917.844,95.437,540.598,538.819,0.0
54769.0,STARLINK-5404,PAYLOAD,2023-09-03 00:57:25,15.08845821,0.0001765,53.2143,208.1317,102.0617,258.0573,0.00015347,2.156e-05,0.0,0 STARLINK-5404,1 54769U 22175M   23246.03987361  .00002156  00000-0  15347-3 0  9999,2 54769  53.2143 208.1317 0001765 102.0617 258.0573 15.08845821 39070,6917.863,95.437,540.949,538.507,0.0
54769.0,STARLINK-5404,PAYLOAD,2023-09-03 07:18:57,15.08848377,0.0001386,53.2156,206.9427,100.6611,259.4537,0.00016551,2.348e-05,0.0,0 STARLINK-5404,1 54769U 22175M   23246.30483209  .00002348  00000-0  16551-3 0  9992,2 54769  53.2156 206.9427 0001386 100.6611 259.4537 15.08848377 41278,6917.855,95.437,540.679,538.761,0.0
54769.0,STARLINK-5404,PAYLOAD,2023-09-03 23:12:49,15.08829146,9.47e-05,53.2161,203.9698,85.1205,274.9896,-0.00016181,-2.861e-05,0.0,0 STARLINK-5404,1 54769U 22175M   23246.96724241 -.00002861  00000-0 -16181-3 0  9999,2 54769  53.2161 203.9698 0000947  85.1205 274.9896 15.08829146 39213,6917.914,95.438,540.434,539.123,0.0
54769.0,STARLINK-5404,PAYLOAD,2023-09-04 03:58:59,15.08836513,0.0001318,53.2165,203.079,90.9028,269.2115,-5.2061e-05,-1.116e-05,0.0,0 STARLINK-5404,1 54769U 22175M   23247.16596312 -.00001116  00000-0 -52061-4 0  9998,2 54769  53.2165 203.0790 0001318  90.9028 269.2115 15.08836513 41402,6917.891,95.438,540.668,538.844,0.0
54769.0,STARLINK-5404,PAYLOAD,2023-09-05 03:49:45,15.08841154,0.0001242,53.2162,198.618,96.2158,263.8976,0.00013134,1.803e-05,0.0,0 STARLINK-5404,1 54769U 22175M   23248.15955920  .00001803  00000-0  13134-3 0  9990,2 54769  53.2162 198.6180 0001242  96.2158 263.8976 15.08841154 39397,6917.877,95.437,540.601,538.883,0.0
54769.0,STARLINK-5404,PAYLOAD,2023-09-06 03:40:33,15.08839839,0.0001182,53.2163,194.1582,90.9668,269.1459,0.00019003,2.738e-05,0.0,0 STARLINK-5404,1 54769U 22175M   23249.15316289  .00002738  00000-0  19003-3 0  9999,2 54769  53.2163 194.1582 0001182  90.9668 269.1459 15.08839839 39544,6917.881,95.438,540.564,538.928,0.0
54769.0,STARLINK-5404,PAYLOAD,2023-09-06 06:51:19,15.08847034,0.0001268,53.2156,193.5626,87.3266,272.7871,0.00025113,3.712e-05,0.0,0 STARLINK-5404,1 54769U 22175M   23249.28563998  .00003712  00000-0  25113-3 0  9996,2 54769  53.2156 193.5626 0001268  87.3266 272.7871 15.08847034 41724,6917.859,95.437,540.601,538.847,0.0
54769.0,STARLINK-5404,PAYLOAD,2023-09-07 06:42:06,15.08841261,0.0001319,53.2156,189.1019,85.5751,274.5391,2.8245e-05,1.62e-06,0.0,0 STARLINK-5404,1 54769U 22175M   23250.27924251  .00000162  00000-0  28245-4 0  9996,2 54769  53.2156 189.1019 0001319  85.5751 274.5391 15.08841261 39716,6917.877,95.437,540.654,538.829,0.0
54769.0,STARLINK-5404,PAYLOAD,2023-09-08 03:22:07,15.08845561,0.0001356,53.2166,185.2359,89.7747,270.3401,4.3575e-05,4.06e-06,0.0,0 STARLINK-5404,1 54769U 22175M   23251.14036293  .00000406  00000-0  43575-4 0  9997,2 54769  53.2166 185.2359 0001356  89.7747 270.3401 15.08845561 42002,6917.863,95.437,540.666,538.79,0.0
54769.0,STARLINK-5404,PAYLOAD,2023-09-09 01:37:31,15.08849222,0.0001433,53.2166,181.0752,83.8425,276.2731,6.3441e-05,7.22e-06,0.0,0 STARLINK-5404,1 54769U 22175M   23252.06772153  .00000722  00000-0  63441-4 0  9996,2 54769  53.2166 181.0752 0001433  83.8425 276.2731 15.08849222 39989,6917.852,95.437,540.709,538.726,0.0
54769.0,STARLINK-5404,PAYLOAD,2023-09-09 12:45:12,15.08851552,0.0001447,53.2167,178.9935,82.8052,277.3105,6.1393e-05,6.9e-06,0.0,0 STARLINK-5404,1 54769U 22175M   23252.53139824  .00000690  00000-0  61393-4 0  9998,2 54769  53.2167 178.9935 0001447  82.8052 277.3105 15.08851552 42214,6917.845,95.437,540.711,538.709,0.0
54769.0,STARLINK-5404,PAYLOAD,2023-09-10 04:39:04,15.08850009,0.0001421,53.217,176.0163,104.3147,255.8003,8.7018e-05,1.098e-05,0.0,0 STARLINK-5404,1 54769U 22175M   23253.19379735  .00001098  00000-0  87018-4 0  9993,2 54769  53.2170 176.0163 0001421 104.3147 255.8003 15.08850009 40152,6917.85,95.437,540.698,538.732,0.0
54769.0,STARLINK-5404,PAYLOAD,2023-09-10 18:57:33,15.08835504,0.0001522,53.2168,173.3404,107.0413,253.0745,-1.7235e-05,-5.62e-06,0.0,0 STARLINK-5404,1 54769U 22175M   23253.78997086 -.00000562  00000-0 -17235-4 0  9994,2 54769  53.2168 173.3404 0001522 107.0413 253.0745 15.08835504 40241,6917.894,95.438,540.812,538.706,0.0
